[{"OBJECT_NAME":"CUTE-1.7+APD II (CO-65)","OBJECT_ID":"2008-021C","EPOCH":"2026-03-07T03:01:54.313248","MEAN_MOTION":15.08327512,"ECCENTRICITY":0.0009989,"INCLINATION":97.821,"RA_OF_ASC_NODE":45.5519,"ARG_OF_PERICENTER":28.1207,"MEAN_ANOMALY":332.0559,"EPHEMERIS_TYPE":0,"CLASSIFICATION_TYPE":"U","NORAD_CAT_ID":32785,"ELEMENT_SET_NO":999,"REV_AT_EPOCH":96980,"BSTAR":0.00051229,"MEAN_MOTION_DOT":7.898e-5,"MEAN_MOTION_DDOT":0},{"OBJECT_NAME":"SEEDS II (CO-66)","OBJECT_ID":"2008-021J","EPOCH":"2026-03-06T21:51:24.933600","MEAN_MOTION":15.28931054,"ECCENTRICITY":0.0001927,"INCLINATION":97.7521,"RA_OF_ASC_NODE":59.2254,"ARG_OF_PERICENTER":8.7916,"MEAN_ANOMALY":351.3357,"EPHEMERIS_TYPE":0,"CLASSIFICATION_TYPE":"U","NORAD_CAT_ID":32791,"ELEMENT_SET_NO":999,"REV_AT_EPOCH":97164,"BSTAR":0.00086086,"MEAN_MOTION_DOT":0.00024166,"MEAN_MOTION_DDOT":0},{"OBJECT_NAME":"YUBILEINY (RS30)","OBJECT_ID":"2008-025A","EPOCH":"2026-03-07T05:06:44.902944","MEAN_MOTION":12.43175477,"ECCENTRICITY":0.0019456,"INCLINATION":82.4991,"RA_OF_ASC_NODE":58.8634,"ARG_OF_PERICENTER":170.6391,"MEAN_ANOMALY":189.5055,"EPHEMERIS_TYPE":0,"CLASSIFICATION_TYPE":"U","NORAD_CAT_ID":32953,"ELEMENT_SET_NO":999,"REV_AT_EPOCH":80702,"BSTAR":-0.00067411,"MEAN_MOTION_DOT":-8.4e-7,"MEAN_MOTION_DDOT":0},{"OBJECT_NAME":"KKS-1 (KISEKI)","OBJECT_ID":"2009-002H","EPOCH":"2026-03-07T02:28:25.140000","MEAN_MOTION":14.82817015,"ECCENTRICITY":0.0006424,"INCLINATION":98.1187,"RA_OF_ASC_NODE":346.9593,"ARG_OF_PERICENTER":261.068,"MEAN_ANOMALY":98.9805,"EPHEMERIS_TYPE":0,"CLASSIFICATION_TYPE":"U","NORAD_CAT_ID":33499,"ELEMENT_SET_NO":999,"REV_AT_EPOCH":92106,"BSTAR":0.00026667,"MEAN_MOTION_DOT":2.103e-5,"MEAN_MOTION_DDOT":0},{"OBJECT_NAME":"SWISSCUBE","OBJECT_ID":"2009-051B","EPOCH":"2026-03-06T04:37:51.918528","MEAN_MOTION":14.622483,"ECCENTRICITY":0.00068415,"INCLINATION":98.4101,"RA_OF_ASC_NODE":331.2738,"ARG_OF_PERICENTER":163.0927,"MEAN_ANOMALY":197.0503,"EPHEMERIS_TYPE":0,"CLASSIFICATION_TYPE":"U","NORAD_CAT_ID":35932,"ELEMENT_SET_NO":999,"REV_AT_EPOCH":87410,"BSTAR":0.00035868977,"MEAN_MOTION_DOT":1.759e-5,"MEAN_MOTION_DDOT":0},{"OBJECT_NAME":"BEESAT-1","OBJECT_ID":"2009-051C","EPOCH":"2026-03-06T23:18:58.597920","MEAN_MOTION":14.61524816,"ECCENTRICITY":0.0005127,"INCLINATION":98.403,"RA_OF_ASC_NODE":331.9117,"ARG_OF_PERICENTER":171.6467,"MEAN_ANOMALY":188.482,"EPHEMERIS_TYPE":0,"CLASSIFICATION_TYPE":"U","NORAD_CAT_ID":35933,"ELEMENT_SET_NO":999,"REV_AT_EPOCH":87425,"BSTAR":0.00026698,"MEAN_MOTION_DOT":1.276e-5,"MEAN_MOTION_DDOT":0},{"OBJECT_NAME":"ITUPSAT1","OBJECT_ID":"2009-051E","EPOCH":"2026-03-07T03:32:21.900480","MEAN_MOTION":14.60260933,"ECCENTRICITY":0.0007091,"INCLINATION":98.4118,"RA_OF_ASC_NODE":331.3878,"ARG_OF_PERICENTER":186.103,"MEAN_ANOMALY":174.0084,"EPHEMERIS_TYPE":0,"CLASSIFICATION_TYPE":"U","NORAD_CAT_ID":35935,"ELEMENT_SET_NO":999,"REV_AT_EPOCH":87384,"BSTAR":0.00025199,"MEAN_MOTION_DOT":1.168e-5,"MEAN_MOTION_DDOT":0},{"OBJECT_NAME":"XIWANG-1 (HOPE-1)","OBJECT_ID":"2009-072B","EPOCH":"2026-03-07T04:14:53.843712","MEAN_MOTION":13.16434154,"ECCENTRICITY":0.0008046,"INCLINATION":100.3917,"RA_OF_ASC_NODE":21.6931,"ARG_OF_PERICENTER":104.6973,"MEAN_ANOMALY":255.5032,"EPHEMERIS_TYPE":0,"CLASSIFICATION_TYPE":"U","NORAD_CAT_ID":36122,"ELEMENT_SET_NO":999,"REV_AT_EPOCH":77958,"BSTAR":-0.00070742,"MEAN_MOTION_DOT":-3.14e-6,"MEAN_MOTION_DDOT":0},{"OBJECT_NAME":"O/OREOS (USA 219)","OBJECT_ID":"2010-062C","EPOCH":"2026-03-07T02:51:26.251776","MEAN_MOTION":14.93262646,"ECCENTRICITY":0.0016912,"INCLINATION":71.9715,"RA_OF_ASC_NODE":311.4616,"ARG_OF_PERICENTER":261.0341,"MEAN_ANOMALY":98.8915,"EPHEMERIS_TYPE":0,"CLASSIFICATION_TYPE":"U","NORAD_CAT_ID":37224,"ELEMENT_SET_NO":999,"REV_AT_EPOCH":10140,"BSTAR":0.000268,"MEAN_MOTION_DOT":2.751e-5,"MEAN_MOTION_DDOT":0},{"OBJECT_NAME":"JUGNU","OBJECT_ID":"2011-058B","EPOCH":"2026-03-06T14:34:05.891232","MEAN_MOTION":14.1373927,"ECCENTRICITY":0.0018726,"INCLINATION":19.9594,"RA_OF_ASC_NODE":211.6256,"ARG_OF_PERICENTER":23.6364,"MEAN_ANOMALY":62.6809,"EPHEMERIS_TYPE":0,"CLASSIFICATION_TYPE":"U","NORAD_CAT_ID":37839,"ELEMENT_SET_NO":999,"REV_AT_EPOCH":74449,"BSTAR":0.00015259622,"MEAN_MOTION_DOT":5.6e-6,"MEAN_MOTION_DDOT":0},{"OBJECT_NAME":"SRMSAT","OBJECT_ID":"2011-058D","EPOCH":"2026-03-06T20:41:54.525696","MEAN_MOTION":14.11546449,"ECCENTRICITY":0.0011841,"INCLINATION":19.9729,"RA_OF_ASC_NODE":318.8168,"ARG_OF_PERICENTER":158.0266,"MEAN_ANOMALY":271.4446,"EPHEMERIS_TYPE":0,"CLASSIFICATION_TYPE":"U","NORAD_CAT_ID":37841,"ELEMENT_SET_NO":999,"REV_AT_EPOCH":74334,"BSTAR":0.00013114,"MEAN_MOTION_DOT":5.07e-6,"MEAN_MOTION_DDOT":0},{"OBJECT_NAME":"STRAND-1","OBJECT_ID":"2013-009E","EPOCH":"2026-03-06T23:43:03.292320","MEAN_MOTION":14.370918,"ECCENTRICITY":0.0008858,"INCLINATION":98.3885,"RA_OF_ASC_NODE":248.7472,"ARG_OF_PERICENTER":169.5759,"MEAN_ANOMALY":190.5613,"EPHEMERIS_TYPE":0,"CLASSIFICATION_TYPE":"U","NORAD_CAT_ID":39090,"ELEMENT_SET_NO":999,"REV_AT_EPOCH":68238,"BSTAR":0.00016441,"MEAN_MOTION_DOT":4.46e-6,"MEAN_MOTION_DDOT":0},{"OBJECT_NAME":"ZACUBE-1 (TSHEPISOSAT)","OBJECT_ID":"2013-066B","EPOCH":"2026-03-07T03:05:46.622976","MEAN_MOTION":15.00291692,"ECCENTRICITY":0.0042138,"INCLINATION":97.8183,"RA_OF_ASC_NODE":27.9406,"ARG_OF_PERICENTER":228.583,"MEAN_ANOMALY":131.1769,"EPHEMERIS_TYPE":0,"CLASSIFICATION_TYPE":"U","NORAD_CAT_ID":39417,"ELEMENT_SET_NO":999,"REV_AT_EPOCH":66542,"BSTAR":0.00043751,"MEAN_MOTION_DOT":5.523e-5,"MEAN_MOTION_DDOT":0},{"OBJECT_NAME":"GOMX-1","OBJECT_ID":"2013-066Q","EPOCH":"2026-03-07T04:02:43.108800","MEAN_MOTION":14.69084967,"ECCENTRICITY":0.0130405,"INCLINATION":97.6565,"RA_OF_ASC_NODE":273.031,"ARG_OF_PERICENTER":45.5255,"MEAN_ANOMALY":315.6526,"EPHEMERIS_TYPE":0,"CLASSIFICATION_TYPE":"U","NORAD_CAT_ID":39430,"ELEMENT_SET_NO":999,"REV_AT_EPOCH":65493,"BSTAR":0.00028051,"MEAN_MOTION_DOT":1.826e-5,"MEAN_MOTION_DDOT":0},{"OBJECT_NAME":"CUBEBUG-2 (LO-74)","OBJECT_ID":"2013-066AA","EPOCH":"2026-03-06T13:08:28.841856","MEAN_MOTION":14.92909829,"ECCENTRICITY":0.00590879,"INCLINATION":97.882,"RA_OF_ASC_NODE":14.2158,"ARG_OF_PERICENTER":9.5494,"MEAN_ANOMALY":350.6833,"EPHEMERIS_TYPE":0,"CLASSIFICATION_TYPE":"U","NORAD_CAT_ID":39440,"ELEMENT_SET_NO":999,"REV_AT_EPOCH":66167,"BSTAR":0.00071771382,"MEAN_MOTION_DOT":7.643e-5,"MEAN_MOTION_DDOT":0},{"OBJECT_NAME":"FUNCUBE-1 (AO-73)","OBJECT_ID":"2013-066AE","EPOCH":"2026-03-06T20:29:39.374016","MEAN_MOTION":15.07846155,"ECCENTRICITY":0.0036957,"INCLINATION":97.8191,"RA_OF_ASC_NODE":35.3439,"ARG_OF_PERICENTER":188.9589,"MEAN_ANOMALY":171.0983,"EPHEMERIS_TYPE":0,"CLASSIFICATION_TYPE":"U","NORAD_CAT_ID":39444,"ELEMENT_SET_NO":999,"REV_AT_EPOCH":66423,"BSTAR":0.00077451,"MEAN_MOTION_DOT":0.00011997,"MEAN_MOTION_DDOT":0},{"OBJECT_NAME":"UWE-3","OBJECT_ID":"2013-066AG","EPOCH":"2026-03-07T02:54:53.074368","MEAN_MOTION":14.96140822,"ECCENTRICITY":0.0048664,"INCLINATION":97.8593,"RA_OF_ASC_NODE":21.6435,"ARG_OF_PERICENTER":301.1194,"MEAN_ANOMALY":58.5257,"EPHEMERIS_TYPE":0,"CLASSIFICATION_TYPE":"U","NORAD_CAT_ID":39446,"ELEMENT_SET_NO":999,"REV_AT_EPOCH":66231,"BSTAR":0.00054125,"MEAN_MOTION_DOT":6.179e-5,"MEAN_MOTION_DDOT":0}]
