CUTE-1.7+APD II (CO-65) 
1 32785U 08021C   26066.12632307  .00007898  00000+0  51229-3 0  9993
2 32785  97.8210  45.5519 0009989  28.1207 332.0559 15.08327512969801
SEEDS II (CO-66)        
1 32791U 08021J   26065.91070525  .00024166  00000+0  86086-3 0  9990
2 32791  97.7521  59.2254 0001927   8.7916 351.3357 15.28931054971644
YUBILEINY (RS30)        
1 32953U 08025A   26066.21301971 -.00000084  00000+0 -67411-3 0  9996
2 32953  82.4991  58.8634 0019456 170.6391 189.5055 12.43175477807024
KKS-1 (KISEKI)          
1 33499U 09002H   26066.10306875  .00002103  00000+0  26667-3 0  9994
2 33499  98.1187 346.9593 0006424 261.0680  98.9805 14.82817015921066
SWISSCUBE               
1 35932U 09051B   26065.19296202  .00001759  00000+0  35869-3 0  9992
2 35932  98.4101 331.2738 0006841 163.0927 197.0503 14.62248300874106
BEESAT-1                
1 35933U 09051C   26065.97151155  .00001276  00000+0  26698-3 0  9990
2 35933  98.4030 331.9117 0005127 171.6467 188.4820 14.61524816874256
ITUPSAT1                
1 35935U 09051E   26066.14747570  .00001168  00000+0  25199-3 0  9999
2 35935  98.4118 331.3878 0007091 186.1030 174.0084 14.60260933873845
XIWANG-1 (HOPE-1)       
1 36122U 09072B   26066.17701208 -.00000314  00000+0 -70742-3 0  9990
2 36122 100.3917  21.6931 0008046 104.6973 255.5032 13.16434154779587
O/OREOS (USA 219)       
1 37224U 10062C   26066.11905384  .00002751  00000+0  26800-3 0  9991
2 37224  71.9715 311.4616 0016912 261.0341  98.8915 14.93262646101407
JUGNU                   
1 37839U 11058B   26065.60701263  .00000560  00000+0  15260-3 0  9996
2 37839  19.9594 211.6256 0018726  23.6364  62.6809 14.13739270744496
SRMSAT                  
1 37841U 11058D   26065.86243664  .00000507  00000+0  13114-3 0  9990
2 37841  19.9729 318.8168 0011841 158.0266 271.4446 14.11546449743348
STRAND-1                
1 39090U 13009E   26065.98823255  .00000446  00000+0  16441-3 0  9997
2 39090  98.3885 248.7472 0008858 169.5759 190.5613 14.37091800682384
ZACUBE-1 (TSHEPISOSAT)  
1 39417U 13066B   26066.12901184  .00005523  00000+0  43751-3 0  9993
2 39417  97.8183  27.9406 0042138 228.5830 131.1769 15.00291692665422
GOMX-1                  
1 39430U 13066Q   26066.16855450  .00001826  00000+0  28051-3 0  9994
2 39430  97.6565 273.0310 0130405  45.5255 315.6526 14.69084967654933
CUBEBUG-2 (LO-74)       
1 39440U 13066AA  26065.54755604  .00007643  00000+0  71771-3 0  9996
2 39440  97.8820  14.2158 0059087   9.5494 350.6833 14.92909829661674
FUNCUBE-1 (AO-73)       
1 39444U 13066AE  26065.85392794  .00011997  00000+0  77451-3 0  9999
2 39444  97.8191  35.3439 0036957 188.9589 171.0983 15.07846155664238
UWE-3                   
1 39446U 13066AG  26066.12144762  .00006179  00000+0  54125-3 0  9991
2 39446  97.8593  21.6435 0048664 301.1194  58.5257 14.96140822662314
